{"type": "FeatureCollection", "features": [ {"type": "Feature", "properties": {"norad_id": 33917, "name": "COSMOS 2251 DEB", "group": "cosmos-2251-debris", "lat": -59.15566856021092, "lon": 94.3156232367149, "alt_km": 929.8868979314411, "timestamp": "2025-12-12T11:38:31.805634+00:00", "meta": {"OBJECT_NAME": "COSMOS 2251 DEB", "OBJECT_ID": "1993-036DW", "EPOCH": "2025-12-12T03:11:17.369088", "MEAN_MOTION": 13.69357687, "ECCENTRICITY": 0.0331264, "INCLINATION": 74.1068, "RA_OF_ASC_NODE": 123.3884, "ARG_OF_PERICENTER": 224.4791, "MEAN_ANOMALY": 132.9296, "EPHEMERIS_TYPE": 0, "CLASSIFICATION_TYPE": "U", "NORAD_CAT_ID": 33917, "ELEMENT_SET_NO": 999, "REV_AT_EPOCH": 83725, "BSTAR": 0.0010791, "MEAN_MOTION_DOT": 1.355e-05, "MEAN_MOTION_DDOT": 0}, "tle": {"line1": "1 33917U 93036DW  25346.13283992  .00001355  00000+0  10791-2 0  9994", "line2": "2 33917  74.1068 123.3884 0331264 224.4791 132.9296 13.69357687837250"}}, "geometry": {"type": "Point", "coordinates": [94.3156232367149, -59.15566856021092]}}, {"type": "Feature", "properties": {"norad_id": 33920, "name": "COSMOS 2251 DEB", "group": "cosmos-2251-debris", "lat": -61.78989761727362, "lon": -93.27853920338782, "alt_km": 679.0584297699852, "timestamp": "2025-12-12T11:38:31.805645+00:00", "meta": {"OBJECT_NAME": "COSMOS 2251 DEB", "OBJECT_ID": "1993-036DZ", "EPOCH": "2025-12-11T22:46:20.793792", "MEAN_MOTION": 14.58254573, "ECCENTRICITY": 0.003829, "INCLINATION": 74.0615, "RA_OF_ASC_NODE": 299.9305, "ARG_OF_PERICENTER": 306.5878, "MEAN_ANOMALY": 53.1766, "EPHEMERIS_TYPE": 0, "CLASSIFICATION_TYPE": "U", "NORAD_CAT_ID": 33920, "ELEMENT_SET_NO": 999, "REV_AT_EPOCH": 88103, "BSTAR": 0.0029367, "MEAN_MOTION_DOT": 0.00013703, "MEAN_MOTION_DDOT": 0}, "tle": {"line1": "1 33920U 93036DZ  25345.94885178  .00013703  00000+0  29367-2 0  9999", "line2": "2 33920  74.0615 299.9305 0038290 306.5878  53.1766 14.58254573881030"}}, "geometry": {"type": "Point", "coordinates": [-93.27853920338782, -61.78989761727362]}}, {"type": "Feature", "properties": {"norad_id": 33922, "name": "COSMOS 2251 DEB", "group": "cosmos-2251-debris", "lat": 72.84870765281283, "lon": -143.80716347205234, "alt_km": 736.3960051525801, "timestamp": "2025-12-12T11:38:31.805655+00:00", "meta": {"OBJECT_NAME": "COSMOS 2251 DEB", "OBJECT_ID": "1993-036EB", "EPOCH": "2025-12-11T22:43:59.164320", "MEAN_MOTION": 14.49502228, "ECCENTRICITY": 0.0023269, "INCLINATION": 74.0467, "RA_OF_ASC_NODE": 149.2491, "ARG_OF_PERICENTER": 259.9764, "MEAN_ANOMALY": 258.0846, "EPHEMERIS_TYPE": 0, "CLASSIFICATION_TYPE": "U", "NORAD_CAT_ID": 33922, "ELEMENT_SET_NO": 999, "REV_AT_EPOCH": 88566, "BSTAR": 0.00075079, "MEAN_MOTION_DOT": 2.861e-05, "MEAN_MOTION_DDOT": 0}, "tle": {"line1": "1 33922U 93036EB  25345.94721255  .00002861  00000+0  75079-3 0  9991", "line2": "2 33922  74.0467 149.2491 0023269 259.9764 258.0846 14.49502228885666"}}, "geometry": {"type": "Point", "coordinates": [-143.80716347205234, 72.84870765281283]}}, {"type": "Feature", "properties": {"norad_id": 33924, "name": "COSMOS 2251 DEB", "group": "cosmos-2251-debris", "lat": 67.11647019219347, "lon": 47.48197265542065, "alt_km": 1346.6110810400414, "timestamp": "2025-12-12T11:38:31.805666+00:00", "meta": {"OBJECT_NAME": "COSMOS 2251 DEB", "OBJECT_ID": "1993-036ED", "EPOCH": "2025-12-12T03:59:39.184800", "MEAN_MOTION": 13.50223711, "ECCENTRICITY": 0.0404044, "INCLINATION": 73.9136, "RA_OF_ASC_NODE": 271.1229, "ARG_OF_PERICENTER": 306.6761, "MEAN_ANOMALY": 49.7837, "EPHEMERIS_TYPE": 0, "CLASSIFICATION_TYPE": "U", "NORAD_CAT_ID": 33924, "ELEMENT_SET_NO": 999, "REV_AT_EPOCH": 82731, "BSTAR": 0.0013123, "MEAN_MOTION_DOT": 1.368e-05, "MEAN_MOTION_DDOT": 0}, "tle": {"line1": "1 33924U 93036ED  25346.16642575  .00001368  00000+0  13123-2 0  9997", "line2": "2 33924  73.9136 271.1229 0404044 306.6761  49.7837 13.50223711827315"}}, "geometry": {"type": "Point", "coordinates": [47.48197265542065, 67.11647019219347]}}, {"type": "Feature", "properties": {"norad_id": 33928, "name": "COSMOS 2251 DEB", "group": "cosmos-2251-debris", "lat": -65.6052990742488, "lon": 13.56741921199958, "alt_km": 718.0394723264308, "timestamp": "2025-12-12T11:38:31.805676+00:00", "meta": {"OBJECT_NAME": "COSMOS 2251 DEB", "OBJECT_ID": "1993-036EH", "EPOCH": "2025-12-12T03:40:26.631264", "MEAN_MOTION": 14.47403179, "ECCENTRICITY": 0.0061426, "INCLINATION": 73.9261, "RA_OF_ASC_NODE": 53.6698, "ARG_OF_PERICENTER": 347.9119, "MEAN_ANOMALY": 12.0561, "EPHEMERIS_TYPE": 0, "CLASSIFICATION_TYPE": "U", "NORAD_CAT_ID": 33928, "ELEMENT_SET_NO": 999, "REV_AT_EPOCH": 88636, "BSTAR": 0.00037702, "MEAN_MOTION_DOT": 1.387e-05, "MEAN_MOTION_DDOT": 0}, "tle": {"line1": "1 33928U 93036EH  25346.15308601  .00001387  00000+0  37702-3 0  9990", "line2": "2 33928  73.9261  53.6698 0061426 347.9119  12.0561 14.47403179886361"}}, "geometry": {"type": "Point", "coordinates": [13.56741921199958, -65.6052990742488]}}, {"type": "Feature", "properties": {"norad_id": 33932, "name": "COSMOS 2251 DEB", "group": "cosmos-2251-debris", "lat": 68.09836129025985, "lon": 1.7918916877333468, "alt_km": 736.9256014292987, "timestamp": "2025-12-12T11:38:31.805686+00:00", "meta": {"OBJECT_NAME": "COSMOS 2251 DEB", "OBJECT_ID": "1993-036EM", "EPOCH": "2025-12-11T23:36:59.714208", "MEAN_MOTION": 14.38754903, "ECCENTRICITY": 0.0035258, "INCLINATION": 74.0346, "RA_OF_ASC_NODE": 317.3113, "ARG_OF_PERICENTER": 33.7262, "MEAN_ANOMALY": 326.6125, "EPHEMERIS_TYPE": 0, "CLASSIFICATION_TYPE": "U", "NORAD_CAT_ID": 33932, "ELEMENT_SET_NO": 999, "REV_AT_EPOCH": 87987, "BSTAR": 0.00081287, "MEAN_MOTION_DOT": 2.489e-05, "MEAN_MOTION_DDOT": 0}, "tle": {"line1": "1 33932U 93036EM  25345.98402447  .00002489  00000+0  81287-3 0  9999", "line2": "2 33932  74.0346 317.3113 0035258  33.7262 326.6125 14.38754903879879"}}, "geometry": {"type": "Point", "coordinates": [1.7918916877333468, 68.09836129025985]}}, {"type": "Feature", "properties": {"norad_id": 33933, "name": "COSMOS 2251 DEB", "group": "cosmos-2251-debris", "lat": -66.66983104659096, "lon": 19.197077563002516, "alt_km": 826.672175990403, "timestamp": "2025-12-12T11:38:31.805697+00:00", "meta": {"OBJECT_NAME": "COSMOS 2251 DEB", "OBJECT_ID": "1993-036EN", "EPOCH": "2025-12-11T22:34:57.922752", "MEAN_MOTION": 14.3348708, "ECCENTRICITY": 0.0070789, "INCLINATION": 74.0894, "RA_OF_ASC_NODE": 61.5924, "ARG_OF_PERICENTER": 70.2387, "MEAN_ANOMALY": 290.638, "EPHEMERIS_TYPE": 0, "CLASSIFICATION_TYPE": "U", "NORAD_CAT_ID": 33933, "ELEMENT_SET_NO": 999, "REV_AT_EPOCH": 87773, "BSTAR": 0.00043082, "MEAN_MOTION_DOT": 1.199e-05, "MEAN_MOTION_DDOT": 0}, "tle": {"line1": "1 33933U 93036EN  25345.94094818  .00001199  00000+0  43082-3 0  9993", "line2": "2 33933  74.0894  61.5924 0070789  70.2387 290.6380 14.33487080877738"}}, "geometry": {"type": "Point", "coordinates": [19.197077563002516, -66.66983104659096]}}, {"type": "Feature", "properties": {"norad_id": 33934, "name": "COSMOS 2251 DEB", "group": "cosmos-2251-debris", "lat": 20.015551640330106, "lon": 107.04205386985299, "alt_km": 705.9302243638749, "timestamp": "2025-12-12T11:38:31.805706+00:00", "meta": {"OBJECT_NAME": "COSMOS 2251 DEB", "OBJECT_ID": "1993-036EP", "EPOCH": "2025-12-12T00:01:40.717344", "MEAN_MOTION": 14.59099311, "ECCENTRICITY": 0.0015683, "INCLINATION": 74.0378, "RA_OF_ASC_NODE": 101.9789, "ARG_OF_PERICENTER": 225.7407, "MEAN_ANOMALY": 134.2472, "EPHEMERIS_TYPE": 0, "CLASSIFICATION_TYPE": "U", "NORAD_CAT_ID": 33934, "ELEMENT_SET_NO": 999, "REV_AT_EPOCH": 88728, "BSTAR": 0.0015463, "MEAN_MOTION_DOT": 7.267e-05, "MEAN_MOTION_DDOT": 0}, "tle": {"line1": "1 33934U 93036EP  25346.00116571  .00007267  00000+0  15463-2 0  9996", "line2": "2 33934  74.0378 101.9789 0015683 225.7407 134.2472 14.59099311887286"}}, "geometry": {"type": "Point", "coordinates": [107.04205386985299, 20.015551640330106]}}, {"type": "Feature", "properties": {"norad_id": 33936, "name": "COSMOS 2251 DEB", "group": "cosmos-2251-debris", "lat": -49.213567922243755, "lon": 18.57077398164375, "alt_km": 706.9361009686763, "timestamp": "2025-12-12T11:38:31.805716+00:00", "meta": {"OBJECT_NAME": "COSMOS 2251 DEB", "OBJECT_ID": "1993-036ER", "EPOCH": "2025-12-12T03:39:34.551072", "MEAN_MOTION": 14.60266446, "ECCENTRICITY": 0.0027595, "INCLINATION": 74.0189, "RA_OF_ASC_NODE": 38.6062, "ARG_OF_PERICENTER": 194.1266, "MEAN_ANOMALY": 165.9131, "EPHEMERIS_TYPE": 0, "CLASSIFICATION_TYPE": "U", "NORAD_CAT_ID": 33936, "ELEMENT_SET_NO": 999, "REV_AT_EPOCH": 88881, "BSTAR": 0.0010908, "MEAN_MOTION_DOT": 5.267e-05, "MEAN_MOTION_DDOT": 0}, "tle": {"line1": "1 33936U 93036ER  25346.15248323  .00005267  00000+0  10908-2 0  9992", "line2": "2 33936  74.0189  38.6062 0027595 194.1266 165.9131 14.60266446888815"}}, "geometry": {"type": "Point", "coordinates": [18.57077398164375, -49.213567922243755]}}, {"type": "Feature", "properties": {"norad_id": 33938, "name": "COSMOS 2251 DEB", "group": "cosmos-2251-debris", "lat": 6.008967763613279, "lon": 25.92644817734315, "alt_km": 743.2181310825727, "timestamp": "2025-12-12T11:38:31.805726+00:00", "meta": {"OBJECT_NAME": "COSMOS 2251 DEB", "OBJECT_ID": "1993-036ET", "EPOCH": "2025-12-12T01:25:35.164128", "MEAN_MOTION": 14.46790384, "ECCENTRICITY": 0.0016856, "INCLINATION": 74.0451, "RA_OF_ASC_NODE": 208.4465, "ARG_OF_PERICENTER": 290.6684, "MEAN_ANOMALY": 187.036, "EPHEMERIS_TYPE": 0, "CLASSIFICATION_TYPE": "U", "NORAD_CAT_ID": 33938, "ELEMENT_SET_NO": 999, "REV_AT_EPOCH": 88390, "BSTAR": 0.00067292, "MEAN_MOTION_DOT": 2.415e-05, "MEAN_MOTION_DDOT": 0}, "tle": {"line1": "1 33938U 93036ET  25346.05943477  .00002415  00000+0  67292-3 0  9996", "line2": "2 33938  74.0451 208.4465 0016856 290.6684 187.0360 14.46790384883908"}}, "geometry": {"type": "Point", "coordinates": [25.92644817734315, 6.008967763613279]}}]}